{
    "links": {
        "self": "http://www.neowsapp.com/rest/v1/neo/3760081?api_key=iIulBulltgU6a56xZRHN4H3l9WmuAYTsLGpBGhQ2"
    },
    "id": "3760081",
    "neo_reference_id": "3760081",
    "name": "(2016 TC)",
    "designation": "2016 TC",
    "nasa_jpl_url": "http://ssd.jpl.nasa.gov/sbdb.cgi?sstr=3760081",
    "absolute_magnitude_h": 25.9,
    "estimated_diameter": {
        "kilometers": {
            "estimated_diameter_min": 0.0175612318,
            "estimated_diameter_max": 0.0392681082
        },
        "meters": {
            "estimated_diameter_min": 17.561231848,
            "estimated_diameter_max": 39.2681081809
        },
        "miles": {
            "estimated_diameter_min": 0.0109120402,
            "estimated_diameter_max": 0.0244000636
        },
        "feet": {
            "estimated_diameter_min": 57.6155918963,
            "estimated_diameter_max": 128.8323800441
        }
    },
    "is_potentially_hazardous_asteroid": false,
    "close_approach_data": [
        {
            "close_approach_date": "2010-09-12",
            "close_approach_date_full": "2010-Sep-12 01:53",
            "epoch_date_close_approach": 1284256380000,
            "relative_velocity": {
                "kilometers_per_second": "24.004444644",
                "kilometers_per_hour": "86416.0007185458",
                "miles_per_hour": "53695.5422242542"
            },
            "miss_distance": {
                "astronomical": "0.4493125119",
                "lunar": "174.7825671291",
                "kilometers": "67216194.744589653",
                "miles": "41766206.6895490914"
            },
            "orbiting_body": "Earth"
        },
        {
            "close_approach_date": "2013-09-23",
            "close_approach_date_full": "2013-Sep-23 18:26",
            "epoch_date_close_approach": 1379960760000,
            "relative_velocity": {
                "kilometers_per_second": "17.0809501146",
                "kilometers_per_hour": "61491.4204126532",
                "miles_per_hour": "38208.3773114067"
            },
            "miss_distance": {
                "astronomical": "0.214779912",
                "lunar": "83.549385768",
                "kilometers": "32130617.35398744",
                "miles": "19965039.832569072"
            },
            "orbiting_body": "Earth"
        },
        {
            "close_approach_date": "2016-10-08",
            "close_approach_date_full": "2016-Oct-08 15:07",
            "epoch_date_close_approach": 1475939220000,
            "relative_velocity": {
                "kilometers_per_second": "10.2046344756",
                "kilometers_per_hour": "36736.6841121852",
                "miles_per_hour": "22826.7468584853"
            },
            "miss_distance": {
                "astronomical": "0.0185498459",
                "lunar": "7.2158900551",
                "kilometers": "2775017.435468233",
                "miles": "1724315.8768102954"
            },
            "orbiting_body": "Earth"
        }
    ],
    "orbital_data": {
        "orbit_id": "4",
        "orbit_determination_date": "2017-04-06 08:23:30",
        "first_observation_date": "2016-10-01",
        "last_observation_date": "2016-10-04",
        "data_arc_in_days": 3,
        "observations_used": 23,
        "orbit_uncertainty": "8",
        "minimum_orbit_intersection": ".00867534",
        "jupiter_tisserand_invariant": "4.859",
        "epoch_osculation": "2457663.5",
        "eccentricity": ".4043011816618174",
        "semi_major_axis": "1.32145599649905",
        "inclination": "1.642429348444933",
        "ascending_node_longitude": "211.5942702499981",
        "orbital_period": "554.8524217233605",
        "perihelion_distance": ".7871897756003895",
        "perihelion_argument": "237.1328286641435",
        "aphelion_distance": "1.85572221739771",
        "perihelion_time": "2457722.590480344036",
        "mean_anomaly": "321.6608451346742",
        "mean_motion": ".6488211746140482",
        "equinox": "J2000",
        "orbit_class": {
            "orbit_class_type": "APO",
            "orbit_class_description": "Near-Earth asteroid orbits which cross the Earth’s orbit similar to that of 1862 Apollo",
            "orbit_class_range": "a (semi-major axis) > 1.0 AU; q (perihelion) < 1.017 AU"
        }
    },
    "is_sentry_object": false
}